[{"OBJECT_NAME":"STARLINK-30100","OBJECT_ID":"2023-119X","EPOCH":"2026-03-09T22:00:01.999584","MEAN_MOTION":15.17573098,"ECCENTRICITY":0.00019511,"INCLINATION":43.0003,"RA_OF_ASC_NODE":79.9179,"ARG_OF_PERICENTER":284.7245,"MEAN_ANOMALY":141.6693,"EPHEMERIS_TYPE":0,"CLASSIFICATION_TYPE":"U","NORAD_CAT_ID":57623,"ELEMENT_SET_NO":999,"REV_AT_EPOCH":573,"BSTAR":0.052332137,"MEAN_MOTION_DOT":0.01165297,"MEAN_MOTION_DDOT":0},{"OBJECT_NAME":"MBZ-SAT","OBJECT_ID":"2025-009T","EPOCH":"2026-03-09T17:04:51.088224","MEAN_MOTION":15.18507845,"ECCENTRICITY":0.00021634,"INCLINATION":97.403,"RA_OF_ASC_NODE":149.1701,"ARG_OF_PERICENTER":323.4829,"MEAN_ANOMALY":36.6257,"EPHEMERIS_TYPE":0,"CLASSIFICATION_TYPE":"U","NORAD_CAT_ID":62626,"ELEMENT_SET_NO":999,"REV_AT_EPOCH":6359,"BSTAR":3.31466e-7,"MEAN_MOTION_DOT":-5.9e-7,"MEAN_MOTION_DDOT":0}]
